start=new Date('2022-08-05T00:00:00.000Z').valueOf();
sats=[{"SEMIMAJOR_AXIS":"6925.337","TIME_SYSTEM":"UTC","MEAN_ANOMALY":"285.3471","EPOCH":"2022-08-04T15:29:12.117696","ARG_OF_PERICENTER":"74.7644","MEAN_MOTION":"15.06403861","OBJECT_TYPE":"PAYLOAD","BSTAR":"0.00008334200000","INCLINATION":"53.0561","CLASSIFICATION_TYPE":"U","OBJECT_ID":"2020-070L","REF_FRAME":"TEME","RCS_SIZE":"LARGE","GP_ID":"209587372","PERIAPSIS":"546.408","COUNTRY_CODE":"US","REV_AT_EPOCH":"10159","OBJECT_NAME":"STARLINK-1692","RA_OF_ASC_NODE":"311.1083","ELEMENT_SET_NO":"999","PERIOD":"95.592","FILE":"3529274","TLE_LINE1":"1 46542U 20070L   22216.64527914  .00000960  00000-0  83342-4 0  9990","NORAD_CAT_ID":"46542","DECAY_DATE":null,"APOAPSIS":"547.995","MEAN_MOTION_DOT":"0.00000960","CENTER_NAME":"EARTH","EPHEMERIS_TYPE":"0","MEAN_MOTION_DDOT":"0.0000000000000","MEAN_ELEMENT_THEORY":"SGP4","TLE_LINE2":"2 46542  53.0561 311.1083 0001146  74.7644 285.3471 15.06403861101594","ECCENTRICITY":"0.00011460","LAUNCH_DATE":"2020-10-06","SITE":"AFETR"},{"OBJECT_ID":"2020-070M","REF_FRAME":"TEME","BSTAR":"0.00005346800000","OBJECT_TYPE":"PAYLOAD","CLASSIFICATION_TYPE":"U","INCLINATION":"53.0572","GP_ID":"209588119","RCS_SIZE":"LARGE","TIME_SYSTEM":"UTC","SEMIMAJOR_AXIS":"6925.373","EPOCH":"2022-08-04T15:07:58.905696","MEAN_ANOMALY":"278.1763","ARG_OF_PERICENTER":"81.9383","MEAN_MOTION":"15.06392157","MEAN_MOTION_DOT":"0.00000515","APOAPSIS":"548.200","DECAY_DATE":null,"EPHEMERIS_TYPE":"0","CENTER_NAME":"EARTH","NORAD_CAT_ID":"46543","TLE_LINE2":"2 46543  53.0572 311.1694 0001389  81.9383 278.1763 15.06392157101593","MEAN_ELEMENT_THEORY":"SGP4","SITE":"AFETR","LAUNCH_DATE":"2020-10-06","ECCENTRICITY":"0.00013890","MEAN_MOTION_DDOT":"0.0000000000000","RA_OF_ASC_NODE":"311.1694","REV_AT_EPOCH":"10159","COUNTRY_CODE":"US","PERIAPSIS":"546.276","OBJECT_NAME":"STARLINK-1693","PERIOD":"95.593","TLE_LINE1":"1 46543U 20070M   22216.63054289  .00000515  00000-0  53468-4 0  9992","FILE":"3529274","ELEMENT_SET_NO":"999"},{"ARG_OF_PERICENTER":"83.1814","MEAN_MOTION":"15.06407749","SEMIMAJOR_AXIS":"6925.325","TIME_SYSTEM":"UTC","EPOCH":"2022-08-04T15:01:59.604384","MEAN_ANOMALY":"276.9328","GP_ID":"209586870","RCS_SIZE":"LARGE","BSTAR":"0.00018225000000","OBJECT_TYPE":"PAYLOAD","CLASSIFICATION_TYPE":"U","INCLINATION":"53.0538","REF_FRAME":"TEME","OBJECT_ID":"2020-070N","ELEMENT_SET_NO":"999","PERIOD":"95.592","TLE_LINE1":"1 46544U 20070N   22216.62638431  .00002435  00000-0  18225-3 0  9993","FILE":"3529274","COUNTRY_CODE":"US","REV_AT_EPOCH":"10180","PERIAPSIS":"546.258","OBJECT_NAME":"STARLINK-1694","RA_OF_ASC_NODE":"296.2041","MEAN_MOTION_DDOT":"0.0000000000000","TLE_LINE2":"2 46544  53.0538 296.2041 0001346  83.1814 276.9328 15.06407749101802","MEAN_ELEMENT_THEORY":"SGP4","SITE":"AFETR","LAUNCH_DATE":"2020-10-06","ECCENTRICITY":"0.00013460","NORAD_CAT_ID":"46544","MEAN_MOTION_DOT":"0.00002435","APOAPSIS":"548.122","DECAY_DATE":null,"EPHEMERIS_TYPE":"0","CENTER_NAME":"EARTH"},{"OBJECT_NAME":"STARLINK-1696","PERIAPSIS":"546.318","COUNTRY_CODE":"US","REV_AT_EPOCH":"10159","RA_OF_ASC_NODE":"311.0129","ELEMENT_SET_NO":"999","FILE":"3529274","TLE_LINE1":"1 46545U 20070P   22216.66739225  .00000395  00000-0  45384-4 0  9991","PERIOD":"95.592","NORAD_CAT_ID":"46545","CENTER_NAME":"EARTH","EPHEMERIS_TYPE":"0","APOAPSIS":"548.086","DECAY_DATE":null,"MEAN_MOTION_DOT":"0.00000395","MEAN_MOTION_DDOT":"0.0000000000000","LAUNCH_DATE":"2020-10-06","ECCENTRICITY":"0.00012760","SITE":"AFETR","MEAN_ELEMENT_THEORY":"SGP4","TLE_LINE2":"2 46545  53.0548 311.0129 0001276  73.5068 286.6061 15.06403783101595","MEAN_ANOMALY":"286.6061","EPOCH":"2022-08-04T16:01:02.690400","SEMIMAJOR_AXIS":"6925.337","TIME_SYSTEM":"UTC","MEAN_MOTION":"15.06403783","ARG_OF_PERICENTER":"73.5068","INCLINATION":"53.0548","CLASSIFICATION_TYPE":"U","OBJECT_TYPE":"PAYLOAD","BSTAR":"0.00004538400000","REF_FRAME":"TEME","OBJECT_ID":"2020-070P","RCS_SIZE":"LARGE","GP_ID":"209586621"},{"FILE":"3529060","TLE_LINE1":"1 46546U 20070Q   22216.51996280 -.00000078  00000-0  13649-4 0  9990","PERIOD":"95.592","ELEMENT_SET_NO":"999","RA_OF_ASC_NODE":"311.6676","OBJECT_NAME":"STARLINK-1697","PERIAPSIS":"546.105","COUNTRY_CODE":"US","REV_AT_EPOCH":"10157","ECCENTRICITY":"0.00016170","LAUNCH_DATE":"2020-10-06","SITE":"AFETR","MEAN_ELEMENT_THEORY":"SGP4","TLE_LINE2":"2 46546  53.0569 311.6676 0001617  64.2038 295.9118 15.06396251101570","MEAN_MOTION_DDOT":"0.0000000000000","CENTER_NAME":"EARTH","EPHEMERIS_TYPE":"0","DECAY_DATE":null,"APOAPSIS":"548.345","MEAN_MOTION_DOT":"-0.00000078","NORAD_CAT_ID":"46546","MEAN_MOTION":"15.06396251","ARG_OF_PERICENTER":"64.2038","EPOCH":"2022-08-04T12:28:44.785920","MEAN_ANOMALY":"295.9118","SEMIMAJOR_AXIS":"6925.360","TIME_SYSTEM":"UTC","RCS_SIZE":"LARGE","GP_ID":"209557168","REF_FRAME":"TEME","OBJECT_ID":"2020-070Q","CLASSIFICATION_TYPE":"U","INCLINATION":"53.0569","OBJECT_TYPE":"PAYLOAD","BSTAR":"0.00001364900000"},{"SEMIMAJOR_AXIS":"6925.350","TIME_SYSTEM":"UTC","MEAN_ANOMALY":"292.0218","EPOCH":"2022-08-04T16:20:55.260960","ARG_OF_PERICENTER":"68.0901","MEAN_MOTION":"15.06399527","REF_FRAME":"TEME","OBJECT_ID":"2020-070R","BSTAR":"-0.00002520300000","OBJECT_TYPE":"PAYLOAD","INCLINATION":"53.0563","CLASSIFICATION_TYPE":"U","GP_ID":"209587622","RCS_SIZE":"LARGE","RA_OF_ASC_NODE":"310.9355","COUNTRY_CODE":"US","REV_AT_EPOCH":"10160","PERIAPSIS":"546.372","OBJECT_NAME":"STARLINK-1698","PERIOD":"95.592","TLE_LINE1":"1 46547U 20070R   22216.68119515 -.00000657  00000-0 -25203-4 0  9990","FILE":"3529274","ELEMENT_SET_NO":"999","MEAN_MOTION_DOT":"-0.00000657","APOAPSIS":"548.058","DECAY_DATE":null,"EPHEMERIS_TYPE":"0","CENTER_NAME":"EARTH","NORAD_CAT_ID":"46547","TLE_LINE2":"2 46547  53.0563 310.9355 0001217  68.0901 292.0218 15.06399527101600","MEAN_ELEMENT_THEORY":"SGP4","SITE":"AFETR","LAUNCH_DATE":"2020-10-06","ECCENTRICITY":"0.00012170","MEAN_MOTION_DDOT":"0.0000000000000"},{"INCLINATION":"53.0557","CLASSIFICATION_TYPE":"U","BSTAR":"0.00003987300000","OBJECT_TYPE":"PAYLOAD","OBJECT_ID":"2020-070S","REF_FRAME":"TEME","GP_ID":"209586371","RCS_SIZE":"LARGE","EPOCH":"2022-08-04T15:02:39.507360","MEAN_ANOMALY":"277.4772","SEMIMAJOR_AXIS":"6925.340","TIME_SYSTEM":"UTC","MEAN_MOTION":"15.06402949","ARG_OF_PERICENTER":"82.6358","NORAD_CAT_ID":"46548","EPHEMERIS_TYPE":"0","CENTER_NAME":"EARTH","MEAN_MOTION_DOT":"0.00000313","DECAY_DATE":null,"APOAPSIS":"548.066","MEAN_MOTION_DDOT":"0.0000000000000","SITE":"AFETR","ECCENTRICITY":"0.00012440","LAUNCH_DATE":"2020-10-06","TLE_LINE2":"2 46548  53.0557 311.1914 0001244  82.6358 277.4772 15.06402949101599","MEAN_ELEMENT_THEORY":"SGP4","OBJECT_NAME":"STARLINK-1699","COUNTRY_CODE":"US","REV_AT_EPOCH":"10159","PERIAPSIS":"546.343","RA_OF_ASC_NODE":"311.1914","ELEMENT_SET_NO":"999","TLE_LINE1":"1 46548U 20070S   22216.62684615  .00000313  00000-0  39873-4 0  9998","FILE":"3529274","PERIOD":"95.592"},{"PERIOD":"95.592","TLE_LINE1":"1 46549U 20070T   22216.65633690  .00000702  00000-0  66029-4 0  9994","FILE":"3529274","ELEMENT_SET_NO":"999","RA_OF_ASC_NODE":"311.0630","REV_AT_EPOCH":"10159","COUNTRY_CODE":"US","PERIAPSIS":"546.367","OBJECT_NAME":"STARLINK-1700","TLE_LINE2":"2 46549  53.0558 311.0630 0001208  83.1917 276.9210 15.06403394101598","MEAN_ELEMENT_THEORY":"SGP4","SITE":"AFETR","ECCENTRICITY":"0.00012080","LAUNCH_DATE":"2020-10-06","MEAN_MOTION_DDOT":"0.0000000000000","MEAN_MOTION_DOT":"0.00000702","APOAPSIS":"548.040","DECAY_DATE":null,"EPHEMERIS_TYPE":"0","CENTER_NAME":"EARTH","NORAD_CAT_ID":"46549","ARG_OF_PERICENTER":"83.1917","MEAN_MOTION":"15.06403394","TIME_SYSTEM":"UTC","SEMIMAJOR_AXIS":"6925.338","EPOCH":"2022-08-04T15:45:07.508160","MEAN_ANOMALY":"276.9210","GP_ID":"209587121","RCS_SIZE":"LARGE","REF_FRAME":"TEME","OBJECT_ID":"2020-070T","BSTAR":"0.00006602900000","OBJECT_TYPE":"PAYLOAD","CLASSIFICATION_TYPE":"U","INCLINATION":"53.0558"},{"RCS_SIZE":"LARGE","GP_ID":"209587373","REF_FRAME":"TEME","OBJECT_ID":"2020-070U","INCLINATION":"53.0550","CLASSIFICATION_TYPE":"U","OBJECT_TYPE":"PAYLOAD","BSTAR":"0.00001839800000","MEAN_MOTION":"15.06395974","ARG_OF_PERICENTER":"66.7835","MEAN_ANOMALY":"293.3293","EPOCH":"2022-08-04T13:48:21.743424","SEMIMAJOR_AXIS":"6925.361","TIME_SYSTEM":"UTC","ECCENTRICITY":"0.00013160","LAUNCH_DATE":"2020-10-06","SITE":"AFETR","MEAN_ELEMENT_THEORY":"SGP4","TLE_LINE2":"2 46550  53.0550 311.4296 0001316  66.7835 293.3293 15.06395974101587","MEAN_MOTION_DDOT":"0.0000000000000","CENTER_NAME":"EARTH","EPHEMERIS_TYPE":"0","APOAPSIS":"548.137","DECAY_DATE":null,"MEAN_MOTION_DOT":"-0.00000007","NORAD_CAT_ID":"46550","FILE":"3529274","TLE_LINE1":"1 46550U 20070U   22216.57525166 -.00000007  00000-0  18398-4 0  9990","PERIOD":"95.592","ELEMENT_SET_NO":"999","RA_OF_ASC_NODE":"311.4296","OBJECT_NAME":"STARLINK-1701","PERIAPSIS":"546.315","COUNTRY_CODE":"US","REV_AT_EPOCH":"10158"},{"ARG_OF_PERICENTER":"80.8191","MEAN_MOTION":"15.06392134","SEMIMAJOR_AXIS":"6925.373","TIME_SYSTEM":"UTC","EPOCH":"2022-08-04T14:24:51.270624","MEAN_ANOMALY":"279.2943","GP_ID":"209588120","RCS_SIZE":"LARGE","OBJECT_ID":"2020-070W","REF_FRAME":"TEME","BSTAR":"-0.00004370000000","OBJECT_TYPE":"PAYLOAD","CLASSIFICATION_TYPE":"U","INCLINATION":"53.0546","PERIOD":"95.593","TLE_LINE1":"1 46552U 20070W   22216.60059341 -.00000932  00000-0 -43700-4 0  9996","FILE":"3529274","ELEMENT_SET_NO":"999","RA_OF_ASC_NODE":"296.2934","COUNTRY_CODE":"US","REV_AT_EPOCH":"10180","PERIAPSIS":"546.348","OBJECT_NAME":"STARLINK-1649","TLE_LINE2":"2 46552  53.0546 296.2934 0001284  80.8191 279.2943 15.06392134101804","MEAN_ELEMENT_THEORY":"SGP4","SITE":"AFETR","LAUNCH_DATE":"2020-10-06","ECCENTRICITY":"0.00012840","MEAN_MOTION_DDOT":"0.0000000000000","MEAN_MOTION_DOT":"-0.00000932","APOAPSIS":"548.127","DECAY_DATE":null,"EPHEMERIS_TYPE":"0","CENTER_NAME":"EARTH","NORAD_CAT_ID":"46552"}];
